IRIDIUM 166             
1 43570U 18061B   25227.91822404  .00000250  00000+0  82142-4 0  9990
2 43570  86.4021 184.2978 0002401  91.1799 268.9672 14.34218465369640
IRIDIUM 158             
1 43571U 18061C   25228.37488916  .00000176  00000+0  55936-4 0  9996
2 43571  86.4022 184.1169 0002101  86.2404 273.9032 14.34218596369683
IRIDIUM 165             
1 43572U 18061D   25227.91187951  .00000242  00000+0  79179-4 0  9990
2 43572  86.4022 184.3505 0002430  87.0960 273.0513 14.34217436369633
IRIDIUM 155             
1 43573U 18061E   25227.94359312  .00000097  00000+0  27550-4 0  9990
2 43573  86.4019 184.2218 0002081  91.7826 268.3608 14.34217592369607
IRIDIUM 154             
1 43574U 18061F   25228.34317744  .00000039  00000+0  70421-5 0  9991
2 43574  86.4023 184.1733 0002290  86.0577 274.0880 14.34217652369711
IRIDIUM 163             
1 43575U 18061G   25227.90553778  .00000169  00000+0  53338-4 0  9993
2 43575  86.4018 184.2812 0002147  83.3113 276.8327 14.34218245369627
IRIDIUM 156             
1 43576U 18061H   25228.36854757  .00000051  00000+0  11154-4 0  9996
2 43576  86.4021 184.0948 0002203  94.1670 265.9778 14.34217787369675
IRIDIUM 164             
1 43577U 18061J   25227.93090931  .00000027  00000+0  24341-5 0  9991
2 43577  86.4022 184.3128 0002482  87.6179 272.5301 14.34217701369661
